CCSDS_OMM_VERS = 2.0
CREATION_DATE  = 
ORIGINATOR     = 

OBJECT_NAME    = DELTA 2 R/B(1)
OBJECT_ID      = 1990-008B
CENTER_NAME    = EARTH
REF_FRAME      = TEME
TIME_SYSTEM    = UTC
MEAN_ELEMENT_THEORY = SGP/SGP4

EPOCH          = 2026-02-14T02:55:54.384672
MEAN_MOTION    = 15.52691635
ECCENTRICITY   = .00914139
INCLINATION    = 35.6057
RA_OF_ASC_NODE = 329.1263
ARG_OF_PERICENTER = 38.4568
MEAN_ANOMALY   = 322.2638

EPHEMERIS_TYPE = 0
CLASSIFICATION_TYPE = U
NORAD_CAT_ID   = 20453
ELEMENT_SET_NO = 999
REV_AT_EPOCH   = 92246
BSTAR          = .91622122E-3
MEAN_MOTION_DOT = .70495E-3
MEAN_MOTION_DDOT = 0

CCSDS_OMM_VERS = 2.0
CREATION_DATE  = 
ORIGINATOR     = 

OBJECT_NAME    = COSMOS 2058
OBJECT_ID      = 1990-010A
CENTER_NAME    = EARTH
REF_FRAME      = TEME
TIME_SYSTEM    = UTC
MEAN_ELEMENT_THEORY = SGP/SGP4

EPOCH          = 2026-02-14T12:56:47.092416
MEAN_MOTION    = 15.11103729
ECCENTRICITY   = .0011472
INCLINATION    = 82.4653
RA_OF_ASC_NODE = 70.2346
ARG_OF_PERICENTER = 61.2680
MEAN_ANOMALY   = 298.9701

EPHEMERIS_TYPE = 0
CLASSIFICATION_TYPE = U
NORAD_CAT_ID   = 20465
ELEMENT_SET_NO = 999
REV_AT_EPOCH   = 93874
BSTAR          = .2498E-3
MEAN_MOTION_DOT = .4217E-4
MEAN_MOTION_DDOT = 0

CCSDS_OMM_VERS = 2.0
CREATION_DATE  = 
ORIGINATOR     = 

OBJECT_NAME    = SL-14 R/B
OBJECT_ID      = 1990-010B
CENTER_NAME    = EARTH
REF_FRAME      = TEME
TIME_SYSTEM    = UTC
MEAN_ELEMENT_THEORY = SGP/SGP4

EPOCH          = 2026-02-14T14:52:50.221344
MEAN_MOTION    = 14.83548745
ECCENTRICITY   = .0020367
INCLINATION    = 82.5020
RA_OF_ASC_NODE = 289.0610
ARG_OF_PERICENTER = 20.2329
MEAN_ANOMALY   = 339.9688

EPHEMERIS_TYPE = 0
CLASSIFICATION_TYPE = U
NORAD_CAT_ID   = 20466
ELEMENT_SET_NO = 999
REV_AT_EPOCH   = 92506
BSTAR          = .51166E-4
MEAN_MOTION_DOT = .446E-5
MEAN_MOTION_DDOT = 0

CCSDS_OMM_VERS = 2.0
CREATION_DATE  = 
ORIGINATOR     = 

OBJECT_NAME    = SL-14 R/B
OBJECT_ID      = 1990-018B
CENTER_NAME    = EARTH
REF_FRAME      = TEME
TIME_SYSTEM    = UTC
MEAN_ELEMENT_THEORY = SGP/SGP4

EPOCH          = 2026-02-14T14:46:27.198912
MEAN_MOTION    = 14.82119668
ECCENTRICITY   = .0016665
INCLINATION    = 82.5179
RA_OF_ASC_NODE = 244.6610
ARG_OF_PERICENTER = 163.1542
MEAN_ANOMALY   = 197.0229

EPHEMERIS_TYPE = 0
CLASSIFICATION_TYPE = U
NORAD_CAT_ID   = 20511
ELEMENT_SET_NO = 999
REV_AT_EPOCH   = 91916
BSTAR          = .56702E-4
MEAN_MOTION_DOT = .475E-5
MEAN_MOTION_DDOT = 0

CCSDS_OMM_VERS = 2.0
CREATION_DATE  = 
ORIGINATOR     = 

OBJECT_NAME    = HST
OBJECT_ID      = 1990-037B
CENTER_NAME    = EARTH
REF_FRAME      = TEME
TIME_SYSTEM    = UTC
MEAN_ELEMENT_THEORY = SGP/SGP4

EPOCH          = 2026-02-13T19:07:45.706656
MEAN_MOTION    = 15.29094567
ECCENTRICITY   = .00014774
INCLINATION    = 28.4663
RA_OF_ASC_NODE = 202.9405
ARG_OF_PERICENTER = 193.7065
MEAN_ANOMALY   = 166.3491

EPHEMERIS_TYPE = 0
CLASSIFICATION_TYPE = U
NORAD_CAT_ID   = 20580
ELEMENT_SET_NO = 999
REV_AT_EPOCH   = 76965
BSTAR          = .25614219E-3
MEAN_MOTION_DOT = .7675E-4
MEAN_MOTION_DDOT = 0

CCSDS_OMM_VERS = 2.0
CREATION_DATE  = 
ORIGINATOR     = 

OBJECT_NAME    = SL-16 R/B
OBJECT_ID      = 1990-046B
CENTER_NAME    = EARTH
REF_FRAME      = TEME
TIME_SYSTEM    = UTC
MEAN_ELEMENT_THEORY = SGP/SGP4

EPOCH          = 2026-02-14T07:09:27.101376
MEAN_MOTION    = 14.15009810
ECCENTRICITY   = .0015043
INCLINATION    = 71.0012
RA_OF_ASC_NODE = 347.0378
ARG_OF_PERICENTER = 332.2646
MEAN_ANOMALY   = 27.7672

EPHEMERIS_TYPE = 0
CLASSIFICATION_TYPE = U
NORAD_CAT_ID   = 20625
ELEMENT_SET_NO = 999
REV_AT_EPOCH   = 84508
BSTAR          = .20034E-3
MEAN_MOTION_DOT = .341E-5
MEAN_MOTION_DDOT = 0

CCSDS_OMM_VERS = 2.0
CREATION_DATE  = 
ORIGINATOR     = 

OBJECT_NAME    = COSMOS 2084
OBJECT_ID      = 1990-055A
CENTER_NAME    = EARTH
REF_FRAME      = TEME
TIME_SYSTEM    = UTC
MEAN_ELEMENT_THEORY = SGP/SGP4

EPOCH          = 2026-02-14T09:49:16.412736
MEAN_MOTION    = 15.05496307
ECCENTRICITY   = .0020685
INCLINATION    = 62.7897
RA_OF_ASC_NODE = 54.9697
ARG_OF_PERICENTER = 184.9606
MEAN_ANOMALY   = 175.1293

EPHEMERIS_TYPE = 0
CLASSIFICATION_TYPE = U
NORAD_CAT_ID   = 20663
ELEMENT_SET_NO = 999
REV_AT_EPOCH   = 93281
BSTAR          = .21819E-3
MEAN_MOTION_DOT = .2964E-4
MEAN_MOTION_DDOT = 0

CCSDS_OMM_VERS = 2.0
CREATION_DATE  = 
ORIGINATOR     = 

OBJECT_NAME    = SL-6 R/B(2)
OBJECT_ID      = 1990-055D
CENTER_NAME    = EARTH
REF_FRAME      = TEME
TIME_SYSTEM    = UTC
MEAN_ELEMENT_THEORY = SGP/SGP4

EPOCH          = 2026-02-14T05:27:20.205216
MEAN_MOTION    = 15.03475275
ECCENTRICITY   = .0021202
INCLINATION    = 62.7847
RA_OF_ASC_NODE = 333.6303
ARG_OF_PERICENTER = 340.5520
MEAN_ANOMALY   = 19.4768

EPHEMERIS_TYPE = 0
CLASSIFICATION_TYPE = U
NORAD_CAT_ID   = 20666
ELEMENT_SET_NO = 999
REV_AT_EPOCH   = 93466
BSTAR          = .21372E-3
MEAN_MOTION_DOT = .274E-4
MEAN_MOTION_DDOT = 0

CCSDS_OMM_VERS = 2.0
CREATION_DATE  = 
ORIGINATOR     = 

OBJECT_NAME    = SL-8 R/B
OBJECT_ID      = 1990-078B
CENTER_NAME    = EARTH
REF_FRAME      = TEME
TIME_SYSTEM    = UTC
MEAN_ELEMENT_THEORY = SGP/SGP4

EPOCH          = 2026-02-14T15:43:22.035360
MEAN_MOTION    = 14.88285010
ECCENTRICITY   = .0366488
INCLINATION    = 82.9019
RA_OF_ASC_NODE = 272.0146
ARG_OF_PERICENTER = 91.1889
MEAN_ANOMALY   = 273.1334

EPHEMERIS_TYPE = 0
CLASSIFICATION_TYPE = U
NORAD_CAT_ID   = 20775
ELEMENT_SET_NO = 999
REV_AT_EPOCH   = 80587
BSTAR          = .37076E-3
MEAN_MOTION_DOT = .12632E-3
MEAN_MOTION_DDOT = 0

CCSDS_OMM_VERS = 2.0
CREATION_DATE  = 
ORIGINATOR     = 

OBJECT_NAME    = SL-8 R/B
OBJECT_ID      = 1991-006B
CENTER_NAME    = EARTH
REF_FRAME      = TEME
TIME_SYSTEM    = UTC
MEAN_ELEMENT_THEORY = SGP/SGP4

EPOCH          = 2026-02-14T10:52:05.560032
MEAN_MOTION    = 13.77492219
ECCENTRICITY   = .0023758
INCLINATION    = 82.9443
RA_OF_ASC_NODE = 187.3206
ARG_OF_PERICENTER = 100.2231
MEAN_ANOMALY   = 318.9796

EPHEMERIS_TYPE = 0
CLASSIFICATION_TYPE = U
NORAD_CAT_ID   = 21088
ELEMENT_SET_NO = 999
REV_AT_EPOCH   = 76087
BSTAR          = -.27941E-5
MEAN_MOTION_DOT = .13E-6
MEAN_MOTION_DDOT = 0

CCSDS_OMM_VERS = 2.0
CREATION_DATE  = 
ORIGINATOR     = 

OBJECT_NAME    = OKEAN-3
OBJECT_ID      = 1991-039A
CENTER_NAME    = EARTH
REF_FRAME      = TEME
TIME_SYSTEM    = UTC
MEAN_ELEMENT_THEORY = SGP/SGP4

EPOCH          = 2026-02-14T08:06:10.649664
MEAN_MOTION    = 15.04617601
ECCENTRICITY   = .0016213
INCLINATION    = 82.5181
RA_OF_ASC_NODE = 359.4585
ARG_OF_PERICENTER = 53.7932
MEAN_ANOMALY   = 306.4790

EPHEMERIS_TYPE = 0
CLASSIFICATION_TYPE = U
NORAD_CAT_ID   = 21397
ELEMENT_SET_NO = 999
REV_AT_EPOCH   = 86152
BSTAR          = .31833E-3
MEAN_MOTION_DOT = .451E-4
MEAN_MOTION_DDOT = 0

CCSDS_OMM_VERS = 2.0
CREATION_DATE  = 
ORIGINATOR     = 

OBJECT_NAME    = COSMOS 2151
OBJECT_ID      = 1991-042A
CENTER_NAME    = EARTH
REF_FRAME      = TEME
TIME_SYSTEM    = UTC
MEAN_ELEMENT_THEORY = SGP/SGP4

EPOCH          = 2026-02-14T14:28:27.351840
MEAN_MOTION    = 15.00015892
ECCENTRICITY   = .0013681
INCLINATION    = 82.4955
RA_OF_ASC_NODE = 105.9481
ARG_OF_PERICENTER = 133.1985
MEAN_ANOMALY   = 227.0384

EPHEMERIS_TYPE = 0
CLASSIFICATION_TYPE = U
NORAD_CAT_ID   = 21422
ELEMENT_SET_NO = 999
REV_AT_EPOCH   = 85973
BSTAR          = .13004E-3
MEAN_MOTION_DOT = .1647E-4
MEAN_MOTION_DDOT = 0

