DELTA 2 R/B(1)          
1 20453U 90008B   26045.12215723  .00070495  00000+0  91622-3 0  9998
2 20453  35.6057 329.1263 0091413  38.4568 322.2638 15.52691635922462
COSMOS 2058             
1 20465U 90010A   26045.53943394  .00004217  00000+0  24980-3 0  9993
2 20465  82.4653  70.2346 0011472  61.2680 298.9701 15.11103729938744
SL-14 R/B               
1 20466U 90010B   26045.62002571  .00000446  00000+0  51166-4 0  9994
2 20466  82.5020 289.0610 0020367  20.2329 339.9688 14.83548745925066
SL-14 R/B               
1 20511U 90018B   26045.61559258  .00000475  00000+0  56702-4 0  9994
2 20511  82.5179 244.6610 0016665 163.1542 197.0229 14.82119668919164
HST                     
1 20580U 90037B   26044.79705679  .00007675  00000+0  25614-3 0  9995
2 20580  28.4663 202.9405 0001477 193.7065 166.3491 15.29094567769659
SL-16 R/B               
1 20625U 90046B   26045.29823034  .00000341  00000+0  20034-3 0  9991
2 20625  71.0012 347.0378 0015043 332.2646  27.7672 14.15009810845084
COSMOS 2084             
1 20663U 90055A   26045.40921774  .00002964  00000+0  21819-3 0  9991
2 20663  62.7897  54.9697 0020685 184.9606 175.1293 15.05496307932814
SL-6 R/B(2)             
1 20666U 90055D   26045.22731719  .00002740  00000+0  21372-3 0  9998
2 20666  62.7847 333.6303 0021202 340.5520  19.4768 15.03475275934665
SL-8 R/B                
1 20775U 90078B   26045.65511615  .00012632  00000+0  37076-3 0  9991
2 20775  82.9019 272.0146 0366488  91.1889 273.1334 14.88285010805873
SL-8 R/B                
1 21088U 91006B   26045.45284213  .00000013  00000+0 -27941-5 0  9993
2 21088  82.9443 187.3206 0023758 100.2231 318.9796 13.77492219760878
OKEAN-3                 
1 21397U 91039A   26045.33762326  .00004510  00000+0  31833-3 0  9993
2 21397  82.5181 359.4585 0016213  53.7932 306.4790 15.04617601861522
COSMOS 2151             
1 21422U 91042A   26045.60309435  .00001647  00000+0  13004-3 0  9992
2 21422  82.4955 105.9481 0013681 133.1985 227.0384 15.00015892859732
